STARLINK-30327          
1 57707U 23129K   26068.51769668  .00007635  00000+0  29314-3 0  9995
2 57707  42.9974  85.9834 0023030  70.8320 289.5022 15.26626807140903
STARLINK-35872          
1 66580U 25268Z   26068.11628635  .00053330  00000+0  19337-2 0  9990
2 66580  43.0025 350.1632 0002039 253.0464 107.0164 15.27576929 17874
