[{"OBJECT_NAME":"STARLINK-30327","OBJECT_ID":"2023-129K","EPOCH":"2026-03-09T12:25:28.993152","MEAN_MOTION":15.26626807,"ECCENTRICITY":0.00230309,"INCLINATION":42.9974,"RA_OF_ASC_NODE":85.9834,"ARG_OF_PERICENTER":70.832,"MEAN_ANOMALY":289.5022,"EPHEMERIS_TYPE":0,"CLASSIFICATION_TYPE":"U","NORAD_CAT_ID":57707,"ELEMENT_SET_NO":999,"REV_AT_EPOCH":14090,"BSTAR":0.00029313824,"MEAN_MOTION_DOT":7.635e-5,"MEAN_MOTION_DDOT":0},{"OBJECT_NAME":"STARLINK-35872","OBJECT_ID":"2025-268Z","EPOCH":"2026-03-09T02:47:27.140640","MEAN_MOTION":15.27576929,"ECCENTRICITY":0.00020393,"INCLINATION":43.0025,"RA_OF_ASC_NODE":350.1632,"ARG_OF_PERICENTER":253.0464,"MEAN_ANOMALY":107.0164,"EPHEMERIS_TYPE":0,"CLASSIFICATION_TYPE":"U","NORAD_CAT_ID":66580,"ELEMENT_SET_NO":999,"REV_AT_EPOCH":1787,"BSTAR":0.001933689,"MEAN_MOTION_DOT":0.0005333,"MEAN_MOTION_DDOT":0}]
